[{"OBJECT_NAME":"STARLINK-5976","OBJECT_ID":"2023-058AC","EPOCH":"2026-03-09T22:46:45.092928","MEAN_MOTION":15.05646081,"ECCENTRICITY":0.00020388,"INCLINATION":97.604,"RA_OF_ASC_NODE":71.4425,"ARG_OF_PERICENTER":84.7743,"MEAN_ANOMALY":275.3716,"EPHEMERIS_TYPE":0,"CLASSIFICATION_TYPE":"U","NORAD_CAT_ID":56343,"ELEMENT_SET_NO":999,"REV_AT_EPOCH":15823,"BSTAR":2.4273949e-5,"MEAN_MOTION_DOT":2.89e-6,"MEAN_MOTION_DDOT":0},{"OBJECT_NAME":"DELTA 1 R\/B","OBJECT_ID":"1972-058B","EPOCH":"2026-03-09T22:14:45.150144","MEAN_MOTION":14.86907844,"ECCENTRICITY":0.00837103,"INCLINATION":98.4819,"RA_OF_ASC_NODE":287.4026,"ARG_OF_PERICENTER":251.5853,"MEAN_ANOMALY":107.6247,"EPHEMERIS_TYPE":0,"CLASSIFICATION_TYPE":"U","NORAD_CAT_ID":6127,"ELEMENT_SET_NO":999,"REV_AT_EPOCH":68503,"BSTAR":0.00031466372,"MEAN_MOTION_DOT":2.928e-5,"MEAN_MOTION_DDOT":0}]
